IRIDIUM 106             
1 41917U 17003A   25103.74002521 -.00000013  00000+0 -11668-4 0  9996
2 41917  86.3918 267.9458 0001693 105.8141 254.3241 14.34217118431651
IRIDIUM 103             
1 41918U 17003B   25104.14594890  .00000240  00000+0  78704-4 0  9991
2 41918  86.3918 267.6765 0001731  77.5009 282.6380 14.34217100431740
IRIDIUM 109             
1 41919U 17003C   25103.73368376  .00000198  00000+0  63667-4 0  9998
2 41919  86.3919 267.9015 0002187  86.5804 273.5642 14.34218151431648
IRIDIUM 102             
1 41920U 17003D   25104.19034948 -.00000004  00000+0 -84063-5 0  9998
2 41920  86.3920 267.6433 0002136  94.6832 265.4608 14.34217402431794
IRIDIUM 105             
1 41921U 17003E   25104.09129437  .00000598  00000+0  20647-3 0  9998
2 41921  86.3979 236.1125 0001975  89.4455 270.6967 14.34213804433634
IRIDIUM 104             
1 41922U 17003F   25104.20303441  .00000050  00000+0  10938-4 0  9997
2 41922  86.3919 267.6738 0002188  79.8166 280.3276 14.34217754431780
IRIDIUM 114             
1 41923U 17003G   25103.72099754  .00000099  00000+0  28367-4 0  9991
2 41923  86.3918 267.8604 0001925  89.4740 270.6676 14.34216477431694
IRIDIUM 108             
1 41924U 17003H   25103.81905670  .00000031  00000+0  41755-5 0  9998
2 41924  86.3975 236.1317 0002106 101.8672 258.2761 14.34217645433566
